[{"OBJECT_NAME":"INTELSAT 25 (IS-25)","OBJECT_ID":"2008-034A","EPOCH":"2026-04-23T01:58:38.717184","MEAN_MOTION":0.99965107,"ECCENTRICITY":0.00021655,"INCLINATION":2.567,"RA_OF_ASC_NODE":80.9425,"ARG_OF_PERICENTER":274.6153,"MEAN_ANOMALY":207.906,"EPHEMERIS_TYPE":0,"CLASSIFICATION_TYPE":"U","NORAD_CAT_ID":33153,"ELEMENT_SET_NO":999,"REV_AT_EPOCH":6514,"BSTAR":0,"MEAN_MOTION_DOT":-2.78e-6,"MEAN_MOTION_DDOT":0},{"OBJECT_NAME":"GALAXY 19 (G-19)","OBJECT_ID":"2008-045A","EPOCH":"2026-04-26T19:56:58.258176","MEAN_MOTION":1.00271986,"ECCENTRICITY":0.0003331,"INCLINATION":0.0181,"RA_OF_ASC_NODE":248.6021,"ARG_OF_PERICENTER":163.2904,"MEAN_ANOMALY":5.1694,"EPHEMERIS_TYPE":0,"CLASSIFICATION_TYPE":"U","NORAD_CAT_ID":33376,"ELEMENT_SET_NO":999,"REV_AT_EPOCH":6438,"BSTAR":0,"MEAN_MOTION_DOT":-1.5e-6,"MEAN_MOTION_DDOT":0},{"OBJECT_NAME":"FM-5","OBJECT_ID":"2009-034A","EPOCH":"2026-04-26T20:00:12.945888","MEAN_MOTION":1.00272116,"ECCENTRICITY":6.31e-5,"INCLINATION":0.0154,"RA_OF_ASC_NODE":265.6125,"ARG_OF_PERICENTER":23.6952,"MEAN_ANOMALY":139.4291,"EPHEMERIS_TYPE":0,"CLASSIFICATION_TYPE":"U","NORAD_CAT_ID":35493,"ELEMENT_SET_NO":999,"REV_AT_EPOCH":4612,"BSTAR":0,"MEAN_MOTION_DOT":-2.12e-6,"MEAN_MOTION_DDOT":0},{"OBJECT_NAME":"INTELSAT 14 (IS-14)","OBJECT_ID":"2009-064A","EPOCH":"2026-04-26T20:11:56.820768","MEAN_MOTION":1.00272076,"ECCENTRICITY":0.0002475,"INCLINATION":0.0049,"RA_OF_ASC_NODE":253.9851,"ARG_OF_PERICENTER":140.7278,"MEAN_ANOMALY":78.1119,"EPHEMERIS_TYPE":0,"CLASSIFICATION_TYPE":"U","NORAD_CAT_ID":36097,"ELEMENT_SET_NO":999,"REV_AT_EPOCH":6009,"BSTAR":0,"MEAN_MOTION_DOT":-2.85e-6,"MEAN_MOTION_DDOT":0},{"OBJECT_NAME":"INTELSAT 15 (IS-15)","OBJECT_ID":"2009-067A","EPOCH":"2026-04-26T21:22:25.372416","MEAN_MOTION":1.00271821,"ECCENTRICITY":0.0002269,"INCLINATION":0.0305,"RA_OF_ASC_NODE":98.2935,"ARG_OF_PERICENTER":298.0223,"MEAN_ANOMALY":224.3306,"EPHEMERIS_TYPE":0,"CLASSIFICATION_TYPE":"U","NORAD_CAT_ID":36106,"ELEMENT_SET_NO":999,"REV_AT_EPOCH":4071,"BSTAR":0,"MEAN_MOTION_DOT":-1.96e-6,"MEAN_MOTION_DDOT":0},{"OBJECT_NAME":"DIRECTV 12","OBJECT_ID":"2009-075A","EPOCH":"2026-04-26T14:47:25.983744","MEAN_MOTION":1.00272509,"ECCENTRICITY":2.21e-5,"INCLINATION":0.0427,"RA_OF_ASC_NODE":78.4121,"ARG_OF_PERICENTER":321.9133,"MEAN_ANOMALY":293.4211,"EPHEMERIS_TYPE":0,"CLASSIFICATION_TYPE":"U","NORAD_CAT_ID":36131,"ELEMENT_SET_NO":999,"REV_AT_EPOCH":4603,"BSTAR":0,"MEAN_MOTION_DOT":-1.15e-6,"MEAN_MOTION_DDOT":0},{"OBJECT_NAME":"INTELSAT 16 (IS-16)","OBJECT_ID":"2010-006A","EPOCH":"2026-04-26T20:02:57.683040","MEAN_MOTION":1.00270739,"ECCENTRICITY":0.0002113,"INCLINATION":0.0167,"RA_OF_ASC_NODE":280.2057,"ARG_OF_PERICENTER":144.9678,"MEAN_ANOMALY":14.204,"EPHEMERIS_TYPE":0,"CLASSIFICATION_TYPE":"U","NORAD_CAT_ID":36397,"ELEMENT_SET_NO":999,"REV_AT_EPOCH":5913,"BSTAR":0,"MEAN_MOTION_DOT":-2.56e-6,"MEAN_MOTION_DDOT":0},{"OBJECT_NAME":"XM-5","OBJECT_ID":"2010-053A","EPOCH":"2026-04-26T17:18:29.990880","MEAN_MOTION":1.00272551,"ECCENTRICITY":0.00036,"INCLINATION":0.0629,"RA_OF_ASC_NODE":271.2968,"ARG_OF_PERICENTER":275.796,"MEAN_ANOMALY":172.0599,"EPHEMERIS_TYPE":0,"CLASSIFICATION_TYPE":"U","NORAD_CAT_ID":37185,"ELEMENT_SET_NO":999,"REV_AT_EPOCH":5696,"BSTAR":0,"MEAN_MOTION_DOT":-3.5e-7,"MEAN_MOTION_DDOT":0},{"OBJECT_NAME":"INTELSAT 17 (IS-17)","OBJECT_ID":"2010-065B","EPOCH":"2026-04-26T21:18:22.591008","MEAN_MOTION":1.00271523,"ECCENTRICITY":0.0002797,"INCLINATION":0.0168,"RA_OF_ASC_NODE":172.4788,"ARG_OF_PERICENTER":240.2565,"MEAN_ANOMALY":187.7427,"EPHEMERIS_TYPE":0,"CLASSIFICATION_TYPE":"U","NORAD_CAT_ID":37238,"ELEMENT_SET_NO":999,"REV_AT_EPOCH":5273,"BSTAR":0,"MEAN_MOTION_DOT":-1.3e-7,"MEAN_MOTION_DDOT":0},{"OBJECT_NAME":"INTELSAT 28 (IS-28)","OBJECT_ID":"2011-016A","EPOCH":"2026-04-26T20:15:41.460768","MEAN_MOTION":1.00270824,"ECCENTRICITY":0.0004188,"INCLINATION":1.6753,"RA_OF_ASC_NODE":83.2122,"ARG_OF_PERICENTER":317.0091,"MEAN_ANOMALY":86.83,"EPHEMERIS_TYPE":0,"CLASSIFICATION_TYPE":"U","NORAD_CAT_ID":37392,"ELEMENT_SET_NO":999,"REV_AT_EPOCH":5277,"BSTAR":0,"MEAN_MOTION_DOT":-2.35e-6,"MEAN_MOTION_DDOT":0},{"OBJECT_NAME":"INTELSAT 18 (IS-18)","OBJECT_ID":"2011-056A","EPOCH":"2026-04-26T19:33:23.020128","MEAN_MOTION":1.00270495,"ECCENTRICITY":0.0001939,"INCLINATION":0.0173,"RA_OF_ASC_NODE":242.9025,"ARG_OF_PERICENTER":150.307,"MEAN_ANOMALY":294.9497,"EPHEMERIS_TYPE":0,"CLASSIFICATION_TYPE":"U","NORAD_CAT_ID":37834,"ELEMENT_SET_NO":999,"REV_AT_EPOCH":5329,"BSTAR":0,"MEAN_MOTION_DOT":0,"MEAN_MOTION_DDOT":0},{"OBJECT_NAME":"INTELSAT 22 (IS-22)","OBJECT_ID":"2012-011A","EPOCH":"2026-04-26T21:14:12.829344","MEAN_MOTION":1.00270684,"ECCENTRICITY":0.000176,"INCLINATION":0.0217,"RA_OF_ASC_NODE":107.9334,"ARG_OF_PERICENTER":292.6855,"MEAN_ANOMALY":204.9129,"EPHEMERIS_TYPE":0,"CLASSIFICATION_TYPE":"U","NORAD_CAT_ID":38098,"ELEMENT_SET_NO":999,"REV_AT_EPOCH":667,"BSTAR":0,"MEAN_MOTION_DOT":-6.9e-7,"MEAN_MOTION_DDOT":0},{"OBJECT_NAME":"INTELSAT 19 (IS-19)","OBJECT_ID":"2012-030A","EPOCH":"2026-04-26T17:46:47.731872","MEAN_MOTION":1.0026896,"ECCENTRICITY":0.000296,"INCLINATION":0.0405,"RA_OF_ASC_NODE":81.6844,"ARG_OF_PERICENTER":310.3748,"MEAN_ANOMALY":255.3746,"EPHEMERIS_TYPE":0,"CLASSIFICATION_TYPE":"U","NORAD_CAT_ID":38356,"ELEMENT_SET_NO":999,"REV_AT_EPOCH":4993,"BSTAR":0,"MEAN_MOTION_DOT":-6.9e-7,"MEAN_MOTION_DDOT":0},{"OBJECT_NAME":"INTELSAT 20 (IS-20)","OBJECT_ID":"2012-043A","EPOCH":"2026-04-26T15:36:13.804128","MEAN_MOTION":1.00270606,"ECCENTRICITY":0.0001999,"INCLINATION":0.0197,"RA_OF_ASC_NODE":146.3833,"ARG_OF_PERICENTER":31.3923,"MEAN_ANOMALY":339.4161,"EPHEMERIS_TYPE":0,"CLASSIFICATION_TYPE":"U","NORAD_CAT_ID":38740,"ELEMENT_SET_NO":999,"REV_AT_EPOCH":5023,"BSTAR":0,"MEAN_MOTION_DOT":-3.6e-7,"MEAN_MOTION_DDOT":0},{"OBJECT_NAME":"INTELSAT 21 (IS-21)","OBJECT_ID":"2012-045A","EPOCH":"2026-04-26T20:08:12.179904","MEAN_MOTION":1.00270981,"ECCENTRICITY":0.0002076,"INCLINATION":0.0587,"RA_OF_ASC_NODE":79.017,"ARG_OF_PERICENTER":328.8731,"MEAN_ANOMALY":50.9904,"EPHEMERIS_TYPE":0,"CLASSIFICATION_TYPE":"U","NORAD_CAT_ID":38749,"ELEMENT_SET_NO":999,"REV_AT_EPOCH":5001,"BSTAR":0,"MEAN_MOTION_DOT":-2.96e-6,"MEAN_MOTION_DDOT":0},{"OBJECT_NAME":"INTELSAT 23 (IS-23)","OBJECT_ID":"2012-057A","EPOCH":"2026-04-26T20:09:34.549344","MEAN_MOTION":1.00275559,"ECCENTRICITY":3.33e-5,"INCLINATION":0.0185,"RA_OF_ASC_NODE":266.9182,"ARG_OF_PERICENTER":348.1819,"MEAN_ANOMALY":209.1131,"EPHEMERIS_TYPE":0,"CLASSIFICATION_TYPE":"U","NORAD_CAT_ID":38867,"ELEMENT_SET_NO":999,"REV_AT_EPOCH":4944,"BSTAR":0,"MEAN_MOTION_DOT":-2.96e-6,"MEAN_MOTION_DDOT":0},{"OBJECT_NAME":"FM-6","OBJECT_ID":"2013-058A","EPOCH":"2026-04-26T14:43:33.856320","MEAN_MOTION":1.00279502,"ECCENTRICITY":9.46e-5,"INCLINATION":0.0112,"RA_OF_ASC_NODE":244.6103,"ARG_OF_PERICENTER":98.8953,"MEAN_ANOMALY":335.6678,"EPHEMERIS_TYPE":0,"CLASSIFICATION_TYPE":"U","NORAD_CAT_ID":39360,"ELEMENT_SET_NO":999,"REV_AT_EPOCH":4555,"BSTAR":0,"MEAN_MOTION_DOT":-2.9e-7,"MEAN_MOTION_DDOT":0}]
