INTELSAT 25 (IS-25)     
1 33153U 08034A   26113.08239256 -.00000278  00000+0  00000+0 0  9994
2 33153   2.5670  80.9425 0002165 274.6153 207.9060  0.99965107 65143
GALAXY 19 (G-19)        
1 33376U 08045A   26116.83122984 -.00000150  00000+0  00000+0 0  9997
2 33376   0.0181 248.6021 0003331 163.2904   5.1694  1.00271986 64382
FM-5                    
1 35493U 09034A   26116.83348317 -.00000212  00000+0  00000+0 0  9997
2 35493   0.0154 265.6125 0000631  23.6952 139.4291  1.00272116 46122
INTELSAT 14 (IS-14)     
1 36097U 09064A   26116.84162987 -.00000285  00000+0  00000+0 0  9999
2 36097   0.0049 253.9851 0002475 140.7278  78.1119  1.00272076 60097
INTELSAT 15 (IS-15)     
1 36106U 09067A   26116.89057144 -.00000196  00000+0  00000+0 0  9997
2 36106   0.0305  98.2935 0002269 298.0223 224.3306  1.00271821 40711
DIRECTV 12              
1 36131U 09075A   26116.61627296 -.00000115  00000+0  00000+0 0  9996
2 36131   0.0427  78.4121 0000221 321.9133 293.4211  1.00272509 46030
INTELSAT 16 (IS-16)     
1 36397U 10006A   26116.83538985 -.00000256  00000+0  00000+0 0  9992
2 36397   0.0167 280.2057 0002113 144.9678  14.2040  1.00270739 59132
XM-5                    
1 37185U 10053A   26116.72118045 -.00000035  00000+0  00000+0 0  9994
2 37185   0.0629 271.2968 0003600 275.7960 172.0599  1.00272551 56965
INTELSAT 17 (IS-17)     
1 37238U 10065B   26116.88776147 -.00000013  00000+0  00000+0 0  9992
2 37238   0.0168 172.4788 0002797 240.2565 187.7427  1.00271523 52730
INTELSAT 28 (IS-28)     
1 37392U 11016A   26116.84422987 -.00000235  00000+0  00000+0 0  9992
2 37392   1.6753  83.2122 0004188 317.0091  86.8300  1.00270824 52778
INTELSAT 18 (IS-18)     
1 37834U 11056A   26116.81484977  .00000000  00000+0  00000+0 0  9990
2 37834   0.0173 242.9025 0001939 150.3070 294.9497  1.00270495 53291
INTELSAT 22 (IS-22)     
1 38098U 12011A   26116.88487071 -.00000069  00000+0  00000+0 0  9996
2 38098   0.0217 107.9334 0001760 292.6855 204.9129  1.00270684  6672
INTELSAT 19 (IS-19)     
1 38356U 12030A   26116.74083023 -.00000069  00000+0  00000+0 0  9998
2 38356   0.0405  81.6844 0002960 310.3748 255.3746  1.00268960 49939
INTELSAT 20 (IS-20)     
1 38740U 12043A   26116.65015977 -.00000036  00000+0  00000+0 0  9996
2 38740   0.0197 146.3833 0001999  31.3923 339.4161  1.00270606 50237
INTELSAT 21 (IS-21)     
1 38749U 12045A   26116.83902986 -.00000296  00000+0  00000+0 0  9990
2 38749   0.0587  79.0170 0002076 328.8731  50.9904  1.00270981 50015
INTELSAT 23 (IS-23)     
1 38867U 12057A   26116.83998321 -.00000296  00000+0  00000+0 0  9992
2 38867   0.0185 266.9182 0000333 348.1819 209.1131  1.00275559 49447
FM-6                    
1 39360U 13058A   26116.61358630 -.00000029  00000+0  00000+0 0  9996
2 39360   0.0112 244.6103 0000946  98.8953 335.6678  1.00279502 45551
